{
    "links": {
        "self": "http://www.neowsapp.com/rest/v1/neo/3734564?api_key=iIulBulltgU6a56xZRHN4H3l9WmuAYTsLGpBGhQ2"
    },
    "id": "3734564",
    "neo_reference_id": "3734564",
    "name": "(2015 VQ105)",
    "designation": "2015 VQ105",
    "nasa_jpl_url": "http://ssd.jpl.nasa.gov/sbdb.cgi?sstr=3734564",
    "absolute_magnitude_h": 24.5,
    "estimated_diameter": {
        "kilometers": {
            "estimated_diameter_min": 0.0334622374,
            "estimated_diameter_max": 0.0748238376
        },
        "meters": {
            "estimated_diameter_min": 33.4622374455,
            "estimated_diameter_max": 74.8238376074
        },
        "miles": {
            "estimated_diameter_min": 0.0207924639,
            "estimated_diameter_max": 0.0464933628
        },
        "feet": {
            "estimated_diameter_min": 109.7842471007,
            "estimated_diameter_max": 245.4850393757
        }
    },
    "is_potentially_hazardous_asteroid": false,
    "close_approach_data": [
        {
            "close_approach_date": "2015-10-23",
            "close_approach_date_full": "2015-Oct-23 04:09",
            "epoch_date_close_approach": 1445573340000,
            "relative_velocity": {
                "kilometers_per_second": "10.164700095",
                "kilometers_per_hour": "36592.9203419446",
                "miles_per_hour": "22737.4176424711"
            },
            "miss_distance": {
                "astronomical": "0.0808795515",
                "lunar": "31.4621455335",
                "kilometers": "12099408.630955305",
                "miles": "7518223.898601009"
            },
            "orbiting_body": "Earth"
        }
    ],
    "orbital_data": {
        "orbit_id": "6",
        "orbit_determination_date": "2017-04-06 08:30:40",
        "first_observation_date": "2015-11-12",
        "last_observation_date": "2015-11-20",
        "data_arc_in_days": 8,
        "observations_used": 37,
        "orbit_uncertainty": "8",
        "minimum_orbit_intersection": ".080564",
        "jupiter_tisserand_invariant": "3.649",
        "epoch_osculation": "2457339.5",
        "eccentricity": ".5143245195980429",
        "semi_major_axis": "2.00250995667808",
        "inclination": "9.236375132951013",
        "ascending_node_longitude": "234.689881174992",
        "orbital_period": "1035.047910688596",
        "perihelion_distance": ".9725699852193288",
        "perihelion_argument": "119.8859986183647",
        "aphelion_distance": "3.032449928136832",
        "perihelion_time": "2457290.017356297847",
        "mean_anomaly": "17.21055764551416",
        "mean_motion": ".3478099866512454",
        "equinox": "J2000",
        "orbit_class": {
            "orbit_class_type": "APO",
            "orbit_class_description": "Near-Earth asteroid orbits which cross the Earth’s orbit similar to that of 1862 Apollo",
            "orbit_class_range": "a (semi-major axis) > 1.0 AU; q (perihelion) < 1.017 AU"
        }
    },
    "is_sentry_object": false
}